[Satellite]
VERSION=1.1
NAME=ONEWEB-0518
NICKNAME=ONEWEB-0518
TLE1=1 54136U 22138Z   22321.58334491 -.00864573  00000+0 -13310+0 0  9993
TLE2=2 54136  87.4485 208.5728 0013925 195.5301 234.7887 14.76313320  4703
STATUS=0
